GLOBALSTAR M094 [+]     
1 39074U 13005C   23229.83431161 -.00000094  00000+0  55795-4 0  9995
2 39074  51.9962  60.1001 0000627  82.2342 277.8596 12.62266996487867
GLOBALSTAR M096 [+]     
1 39075U 13005D   23229.68899460 -.00000077  00000+0  14811-3 0  9993
2 39075  52.0067 108.5337 0000357  72.4584 287.6322 12.62267961487098
GLOBALSTAR M078 [+]     
1 39076U 13005E   23230.13748380 -.00000117  00000+0 -71268-4 0  9996
2 39076  51.9848 192.5857 0001090 125.7320 234.3648 12.62269527485637
GLOBALSTAR M095 [+]     
1 39077U 13005F   23230.24356283 -.00000114  00000+0 -56108-4 0  9999
2 39077  51.9779 189.7951 0000552 154.9891 205.1002 12.62268011485652
GLOBALSTAR M087 [+]     
1 52888U 22064A   23230.13359336 -.00000121  00000+0  14657-4 0  9999
2 52888  51.9740 188.5808 0009329 315.1005  44.9140 13.37550731 56834
